CTC1_L_00493008-07
1 10062U 25033LK  26075.70035880  .00000000  00000+0  00000-0 0  9992
2 10062 100.3000  84.0000 0000000   0.0000 312.0000 13.03091871    17
CTC1_L_00493008-08
1 10063U 22450FU  26075.70035880  .00000000  00000+0  00000-0 0  9993
2 10063 100.3000  84.0000 0000000   0.0000 357.0000 13.03091871    17
CTC1_L_00493009-01
1 10064U 24942YH  26075.70035880  .00000000  00000+0  00000-0 0  9992
2 10064 100.3000  96.0000 0000000   0.0000  48.0000 13.03091871    18
CTC1_L_00493009-02
1 10065U 22438WJ  26075.70035880  .00000000  00000+0  00000-0 0  9991
2 10065 100.3000  96.0000 0000000   0.0000  93.0000 13.03091871    19
CTC1_L_00493009-03
1 10066U 24471DE  26075.70035880  .00000000  00000+0  00000-0 0  9991
2 10066 100.3000  96.0000 0000000   0.0000 138.0000 13.03091871    10
CTC1_L_00493009-04
1 10067U 24247VY  26075.70035880  .00000000  00000+0  00000-0 0  9993
2 10067 100.3000  96.0000 0000000   0.0000 183.0000 13.03091871    11
CTC1_L_00493009-05
1 10068U 25616FZ  26075.70035880  .00000000  00000+0  00000-0 0  9995
2 10068 100.3000  96.0000 0000000   0.0000 228.0000 13.03091871    12
CTC1_L_00493009-06
1 10069U 24820YL  26075.70035880  .00000000  00000+0  00000-0 0  9992
2 10069 100.3000  96.0000 0000000   0.0000 273.0000 13.03091871    13
CTC1_L_00493009-07
1 10070U 23034QG  26075.70035880  .00000000  00000+0  00000-0 0  9990
2 10070 100.3000  96.0000 0000000   0.0000 318.0000 13.03091871    15
CTC1_L_00493009-08
1 10071U 24726TT  26075.70035880  .00000000  00000+0  00000-0 0  9990
2 10071 100.3000  96.0000 0000000   0.0000   3.0000 13.03091871    17
CTC1_L_00493010-01
1 10072U 23783GP  26075.70035880  .00000000  00000+0  00000-0 0  9993
2 10072 100.3000 108.0000 0000000   0.0000  54.0000 13.03091871    18
CTC1_L_00493010-02
1 10073U 26605HF  26075.70035880  .00000000  00000+0  00000-0 0  9990
2 10073 100.3000 108.0000 0000000   0.0000  99.0000 13.03091871    18
CTC1_L_00493010-03
1 10074U 24552ML  26075.70035880  .00000000  00000+0  00000-0 0  9990
2 10074 100.3000 108.0000 0000000   0.0000 144.0000 13.03091871    10
CTC1_L_00493010-04
1 10075U 24457VF  26075.70035880  .00000000  00000+0  00000-0 0  9995
2 10075 100.3000 108.0000 0000000   0.0000 189.0000 13.03091871    10
CTC1_L_00493010-05
1 10076U 26081WE  26075.70035880  .00000000  00000+0  00000-0 0  9991
2 10076 100.3000 108.0000 0000000   0.0000 234.0000 13.03091871    12
CTC1_L_00493010-06
1 10077U 26452Y   26075.70035880  .00000000  00000+0  00000-0 0  9994
2 10077 100.3000 108.0000 0000000   0.0000 279.0000 13.03091871    12
CTC1_L_00493010-07
1 10078U 26183RU  26075.70035880  .00000000  00000+0  00000-0 0  9996
2 10078 100.3000 108.0000 0000000   0.0000 324.0000 13.03091871    14
CTC1_L_00493010-08
1 10079U 24865FY  26075.70035880  .00000000  00000+0  00000-0 0  9992
2 10079 100.3000 108.0000 0000000   0.0000   9.0000 13.03091871    15
CTC1_L_00493011-01
1 10080U 25298NW  26075.70035880  .00000000  00000+0  00000-0 0  9995
2 10080 100.3000 120.0000 0000000   0.0000  60.0000 13.03091871    18
CTC1_L_00493011-02
1 10081U 26901QY  26075.70035880  .00000000  00000+0  00000-0 0  9998
2 10081 100.3000 120.0000 0000000   0.0000 105.0000 13.03091871    19
CTC1_L_00493011-03
1 10082U 24634XP  26075.70035880  .00000000  00000+0  00000-0 0  9990
2 10082 100.3000 120.0000 0000000   0.0000 150.0000 13.03091871    10
CTC1_L_00493011-04
1 10083U 22843IV  26075.70035880  .00000000  00000+0  00000-0 0  9991
2 10083 100.3000 120.0000 0000000   0.0000 195.0000 13.03091871    10
CTC1_L_00493011-05
1 10084U 24430MU  26075.70035880  .00000000  00000+0  00000-0 0  9996
2 10084 100.3000 120.0000 0000000   0.0000 240.0000 13.03091871    12
CTC1_L_00493011-06
1 10085U 23841CW  26075.70035880  .00000000  00000+0  00000-0 0  9992
2 10085 100.3000 120.0000 0000000   0.0000 285.0000 13.03091871    12
CTC1_L_00493011-07
1 10086U 25923PU  26075.70035880  .00000000  00000+0  00000-0 0  9996
2 10086 100.3000 120.0000 0000000   0.0000 330.0000 13.03091871    14
CTC1_L_00493011-08
1 10087U 22392IU  26075.70035880  .00000000  00000+0  00000-0 0  9994
2 10087 100.3000 120.0000 0000000   0.0000  15.0000 13.03091871    15
CTC1_L_00493012-01
1 10088U 23940XY  26075.70035880  .00000000  00000+0  00000-0 0  9995
2 10088 100.3000 132.0000 0000000   0.0000  66.0000 13.03091871    15
CTC1_L_00493012-02
1 10089U 22102KD  26075.70035880  .00000000  00000+0  00000-0 0  9995
2 10089 100.3000 132.0000 0000000   0.0000 111.0000 13.03091871    17
CTC1_L_00493012-03
1 10090U 26142QR  26075.70035880  .00000000  00000+0  00000-0 0  9995
2 10090 100.3000 132.0000 0000000   0.0000 156.0000 13.03091871    18
CTC1_L_00493012-04
1 10091U 23215OJ  26075.70035880  .00000000  00000+0  00000-0 0  9994
2 10091 100.3000 132.0000 0000000   0.0000 201.0000 13.03091871    10
CTC1_L_00493012-05
1 10092U 22927PT  26075.70035880  .00000000  00000+0  00000-0 0  9994
2 10092 100.3000 132.0000 0000000   0.0000 246.0000 13.03091871    10
CTC1_L_00493012-06
1 10093U 24891UE  26075.70035880  .00000000  00000+0  00000-0 0  9997
2 10093 100.3000 132.0000 0000000   0.0000 291.0000 13.03091871    11
CTC1_L_00493012-07
1 10094U 26643LF  26075.70035880  .00000000  00000+0  00000-0 0  9995
2 10094 100.3000 132.0000 0000000   0.0000 336.0000 13.03091871    12
CTC1_L_00493012-08
1 10095U 26154NP  26075.70035880  .00000000  00000+0  00000-0 0  9993
2 10095 100.3000 132.0000 0000000   0.0000  21.0000 13.03091871    14
CTC1_L_00493013-01
1 10096U 25505UZ  26075.70035880  .00000000  00000+0  00000-0 0  9993
2 10096 100.3000 144.0000 0000000   0.0000  72.0000 13.03091871    14
CTC1_L_00493013-02
1 10097U 22116PY  26075.70035880  .00000000  00000+0  00000-0 0  9999
2 10097 100.3000 144.0000 0000000   0.0000 117.0000 13.03091871    15
CTC1_L_00493013-03
1 10098U 25764DC  26075.70035880  .00000000  00000+0  00000-0 0  9992
2 10098 100.3000 144.0000 0000000   0.0000 162.0000 13.03091871    16
CTC1_L_00493013-04
1 10099U 24173UZ  26075.70035880  .00000000  00000+0  00000-0 0  9996
2 10099 100.3000 144.0000 0000000   0.0000 207.0000 13.03091871    17
CTC1_L_00493013-05
1 10100U 26137MO  26075.70035880  .00000000  00000+0  00000-0 0  9991
2 10100 100.3000 144.0000 0000000   0.0000 252.0000 13.03091871    10
CTC1_L_00493013-06
1 10101U 24665BS  26075.70035880  .00000000  00000+0  00000-0 0  9996
2 10101 100.3000 144.0000 0000000   0.0000 297.0000 13.03091871    10
CTC1_L_00493013-07
1 10102U 25124YN  26075.70035880  .00000000  00000+0  00000-0 0  9998
2 10102 100.3000 144.0000 0000000   0.0000 342.0000 13.03091871    12
CTC1_L_00493013-08
1 10103U 26791GW  26075.70035880  .00000000  00000+0  00000-0 0  9990
2 10103 100.3000 144.0000 0000000   0.0000  27.0000 13.03091871    13
CTC1_L_00493014-01
1 10104U 24151QA  26075.70035880  .00000000  00000+0  00000-0 0  9999
2 10104 100.3000 156.0000 0000000   0.0000  78.0000 13.03091871    13
CTC1_L_00493014-02
1 10105U 22167IP  26075.70035880  .00000000  00000+0  00000-0 0  9995
2 10105 100.3000 156.0000 0000000   0.0000 123.0000 13.03091871    15
CTC1_L_00493014-03
1 10106U 22380IT  26075.70035880  .00000000  00000+0  00000-0 0  9993
2 10106 100.3000 156.0000 0000000   0.0000 168.0000 13.03091871    15
CTC1_L_00493014-04
1 10107U 23761WW  26075.70035880  .00000000  00000+0  00000-0 0  9998
2 10107 100.3000 156.0000 0000000   0.0000 213.0000 13.03091871    17
CTC1_L_00493014-05
1 10108U 24920YA  26075.70035880  .00000000  00000+0  00000-0 0  9997
2 10108 100.3000 156.0000 0000000   0.0000 258.0000 13.03091871    17
CTC1_L_00493014-06
1 10109U 25882KE  26075.70035880  .00000000  00000+0  00000-0 0  9996
2 10109 100.3000 156.0000 0000000   0.0000 303.0000 13.03091871    19
CTC1_L_00493014-07
1 10110U 22171GJ  26075.70035880  .00000000  00000+0  00000-0 0  9996
2 10110 100.3000 156.0000 0000000   0.0000 348.0000 13.03091871    10
CTC1_L_00493014-08
1 10111U 25980LB  26075.70035880  .00000000  00000+0  00000-0 0  9998
2 10111 100.3000 156.0000 0000000   0.0000  33.0000 13.03091871    12
CTC1_L_00493015-01
1 10112U 26700MG  26075.70035880  .00000000  00000+0  00000-0 0  9990
2 10112 100.3000 168.0000 0000000   0.0000  84.0000 13.03091871    12
CTC1_L_00493015-02
1 10113U 24012ZW  26075.70035880  .00000000  00000+0  00000-0 0  9995
2 10113 100.3000 168.0000 0000000   0.0000 129.0000 13.03091871    13
CTC1_L_00493015-03
1 10114U 26301KX  26075.70035880  .00000000  00000+0  00000-0 0  9999
2 10114 100.3000 168.0000 0000000   0.0000 174.0000 13.03091871    14
CTC1_L_00493015-04
1 10115U 23225FE  26075.70035880  .00000000  00000+0  00000-0 0  9992
2 10115 100.3000 168.0000 0000000   0.0000 219.0000 13.03091871    15
CTC1_L_00493015-05
1 10116U 24776JL  26075.70035880  .00000000  00000+0  00000-0 0  9995
2 10116 100.3000 168.0000 0000000   0.0000 264.0000 13.03091871    16
CTC1_L_00493015-06
1 10117U 22418VX  26075.70035880  .00000000  00000+0  00000-0 0  9997
2 10117 100.3000 168.0000 0000000   0.0000 309.0000 13.03091871    17
CTC1_L_00493015-07
1 10118U 23227B   26075.70035880  .00000000  00000+0  00000-0 0  9997
2 10118 100.3000 168.0000 0000000   0.0000 354.0000 13.03091871    18
CTC1_L_00493015-08
1 10119U 25318QH  26075.70035880  .00000000  00000+0  00000-0 0  9991
2 10119 100.3000 168.0000 0000000   0.0000  39.0000 13.03091871    19
CTC1_L_00493016-01
1 10120U 24283CD  26075.70035880  .00000000  00000+0  00000-0 0  9993
2 10120 100.3000 180.0000 0000000   0.0000  90.0000 13.03091871    12
CTC1_L_00493016-02
1 10121U 25449IL  26075.70035880  .00000000  00000+0  00000-0 0  9999
2 10121 100.3000 180.0000 0000000   0.0000 135.0000 13.03091871    13
CTC1_L_00493016-03
1 10122U 24316BV  26075.70035880  .00000000  00000+0  00000-0 0  9992
2 10122 100.3000 180.0000 0000000   0.0000 180.0000 13.03091871    14
CTC1_L_00493016-04
1 10123U 22723HF  26075.70035880  .00000000  00000+0  00000-0 0  9993
2 10123 100.3000 180.0000 0000000   0.0000 225.0000 13.03091871    15
